0 SL-6 R/B(2)
1 21121U 91012D   13283.28339510 -.00000041  00000-0  28002-3 0  5489
2 21121 062.4008 341.7646 7417916 281.4136 010.6559 02.05734571170042
0 SL-6 R/B(2)
1 21121U 91012D   13283.28344639  .00001414  00000-0  28022-2 0  5493
2 21121 062.3958 341.7876 7418119 281.4170 010.7059 02.05723636170040
0 SL-6 R/B(2)
1 21121U 91012D   13287.17181250 -.00001116  00000-0  28002-3 0  5492
2 21121 062.4159 341.0976 7417509 281.4907 010.6033 02.05738195170124
0 SL-6 R/B(2)
1 21121U 91012D   13290.08819000 -.00000814  00000-0  28002-3 0  5503
2 21121 062.4173 340.5968 7416925 281.5361 010.6202 02.05731791170180
0 SL-6 R/B(2)
1 21121U 91012D   13293.23604186  .00000333  00000-0  37760-3 0  5517
2 21121 062.4091 340.0816 7416562 281.5804 182.0012 02.05726929170242
0 SL-6 R/B(2)
1 21121U 91012D   13294.48754869  .00000719  00000-0  27389-3 0  5524
2 21121 062.4113 339.8658 7416417 281.6019 028.8773 02.05725359170275
